{
  "norad_id": 65243,
  "name": "STARLINK-34982",
  "history": [
    {
      "epoch": "2026-04-11T20:08:37.349088Z",
      "apogee_km": 550.9158049627013,
      "perigee_km": 548.1059509833958,
      "latitude_deg": -1.6456421088420459e-06,
      "longitude_deg": 3.390427765773883,
      "height_km": 552.611787970284,
      "semi_major_axis_km": 6927.647877973048,
      "eccentricity": 0.0002028,
      "inclination_deg": 97.6032,
      "raan_deg": 145.5991,
      "arg_perigee_deg": 91.5925,
      "mean_anomaly_deg": 268.5534,
      "mean_motion_rev_day": 15.0565009
    },
    {
      "epoch": "2026-04-13T02:26:55.366080Z",
      "apogee_km": 550.8930172057271,
      "perigee_km": 548.1229290867659,
      "latitude_deg": 1.8947490299439253e-05,
      "longitude_deg": -91.18462878729034,
      "height_km": 552.5725082286682,
      "semi_major_axis_km": 6927.644973146246,
      "eccentricity": 0.00019993,
      "inclination_deg": 97.6023,
      "raan_deg": 146.8437,
      "arg_perigee_deg": 90.1077,
      "mean_anomaly_deg": 270.0379,
      "mean_motion_rev_day": 15.05651037
    },
    {
      "epoch": "2026-04-14T19:55:07.300704Z",
      "apogee_km": 550.7983247892707,
      "perigee_km": 548.2060022142878,
      "latitude_deg": -1.0317929692881458e-05,
      "longitude_deg": 6.765637641900881,
      "height_km": 552.5755665951414,
      "semi_major_axis_km": 6927.639163501779,
      "eccentricity": 0.0001871,
      "inclination_deg": 97.6024,
      "raan_deg": 148.5468,
      "arg_perigee_deg": 90.4969,
      "mean_anomaly_deg": 269.6472,
      "mean_motion_rev_day": 15.05652931
    },
    {
      "epoch": "2026-04-15T16:39:13.271904Z",
      "apogee_km": 550.6484617596743,
      "perigee_km": 548.3651103677876,
      "latitude_deg": 4.962699258284998e-05,
      "longitude_deg": 55.74079546702619,
      "height_km": 552.5970632778902,
      "semi_major_axis_km": 6927.643786063731,
      "eccentricity": 0.0001648,
      "inclination_deg": 97.6034,
      "raan_deg": 149.3984,
      "arg_perigee_deg": 91.3936,
      "mean_anomaly_deg": 268.748,
      "mean_motion_rev_day": 15.05651424
    },
    {
      "epoch": "2026-04-16T21:21:49.466304Z",
      "apogee_km": 550.5551717259414,
      "perigee_km": 548.4588666457357,
      "latitude_deg": -4.902919548697497e-06,
      "longitude_deg": -14.909885018902717,
      "height_km": 552.5918503787591,
      "semi_major_axis_km": 6927.644019185838,
      "eccentricity": 0.0001513,
      "inclination_deg": 97.6031,
      "raan_deg": 150.5776,
      "arg_perigee_deg": 91.2068,
      "mean_anomaly_deg": 268.9332,
      "mean_motion_rev_day": 15.05651348
    },
    {
      "epoch": "2026-04-17T16:30:13.588992Z",
      "apogee_km": 550.507396773336,
      "perigee_km": 548.4932554971356,
      "latitude_deg": 1.031561182447441e-05,
      "longitude_deg": 57.98944949584851,
      "height_km": 552.6338120806774,
      "semi_major_axis_km": 6927.6373261352355,
      "eccentricity": 0.00014537,
      "inclination_deg": 97.6032,
      "raan_deg": 151.3635,
      "arg_perigee_deg": 94.0209,
      "mean_anomaly_deg": 266.1184,
      "mean_motion_rev_day": 15.0565353
    },
    {
      "epoch": "2026-04-18T14:50:01.519296Z",
      "apogee_km": 550.4402611894657,
      "perigee_km": 548.5420910692046,
      "latitude_deg": 3.9406335118289755e-05,
      "longitude_deg": 83.03987667198794,
      "height_km": 552.6676043611399,
      "semi_major_axis_km": 6927.628176129335,
      "eccentricity": 0.000137,
      "inclination_deg": 97.6028,
      "raan_deg": 152.2807,
      "arg_perigee_deg": 96.8615,
      "mean_anomaly_deg": 263.2768,
      "mean_motion_rev_day": 15.05656513
    },
    {
      "epoch": "2026-04-19T13:09:50.013792Z",
      "apogee_km": 550.6112438474775,
      "perigee_km": 548.4054815639929,
      "latitude_deg": -9.747183604595369e-06,
      "longitude_deg": 108.08745594834006,
      "height_km": 553.011782257267,
      "semi_major_axis_km": 6927.645362705735,
      "eccentricity": 0.0001592,
      "inclination_deg": 97.5978,
      "raan_deg": 153.1974,
      "arg_perigee_deg": 113.5315,
      "mean_anomaly_deg": 246.6079,
      "mean_motion_rev_day": 15.0565091
    },
    {
      "epoch": "2026-04-20T01:55:25.252032Z",
      "apogee_km": 550.2331584163376,
      "perigee_km": 548.673896340435,
      "latitude_deg": -3.244653236816683e-05,
      "longitude_deg": -83.3092936728447,
      "height_km": 552.6950496091063,
      "semi_major_axis_km": 6927.5905273783865,
      "eccentricity": 0.00011254,
      "inclination_deg": 97.6008,
      "raan_deg": 153.7215,
      "arg_perigee_deg": 103.1936,
      "mean_anomaly_deg": 256.9416,
      "mean_motion_rev_day": 15.05668787
    },
    {
      "epoch": "2026-04-21T09:49:25.024224Z",
      "apogee_km": 550.0644791114919,
      "perigee_km": 548.8952359382783,
      "latitude_deg": 1.376572999061137e-05,
      "longitude_deg": 158.19136244019458,
      "height_km": 552.798537570111,
      "semi_major_axis_km": 6927.616857524885,
      "eccentricity": 8.439e-05,
      "inclination_deg": 97.5961,
      "raan_deg": 155.0313,
      "arg_perigee_deg": 115.7979,
      "mean_anomaly_deg": 244.3335,
      "mean_motion_rev_day": 15.05660203
    },
    {
      "epoch": "2026-04-22T12:56:19.181760Z",
      "apogee_km": 550.4323095104119,
      "perigee_km": 548.579857749849,
      "latitude_deg": 3.6993787797272536e-05,
      "longitude_deg": 111.46182482965789,
      "height_km": 553.2685004736065,
      "semi_major_axis_km": 6927.643083630131,
      "eccentricity": 0.0001337,
      "inclination_deg": 97.5887,
      "raan_deg": 156.141,
      "arg_perigee_deg": 138.9081,
      "mean_anomaly_deg": 221.2247,
      "mean_motion_rev_day": 15.05651653
    },
    {
      "epoch": "2026-04-23T01:41:55.261536Z",
      "apogee_km": 550.3289580056971,
      "perigee_km": 548.6732524985418,
      "latitude_deg": -7.391522073734178e-05,
      "longitude_deg": -79.93932961112438,
      "height_km": 553.0754346485853,
      "semi_major_axis_km": 6927.638105252119,
      "eccentricity": 0.0001195,
      "inclination_deg": 97.5879,
      "raan_deg": 156.6642,
      "arg_perigee_deg": 128.0344,
      "mean_anomaly_deg": 232.099,
      "mean_motion_rev_day": 15.05653276
    },
    {
      "epoch": "2026-04-24T15:58:43.360032Z",
      "apogee_km": 550.2409086057241,
      "perigee_km": 548.7667066418626,
      "latitude_deg": 1.4308775176733893e-05,
      "longitude_deg": 65.85734119017155,
      "height_km": 552.898592073419,
      "semi_major_axis_km": 6927.640807623793,
      "eccentricity": 0.0001064,
      "inclination_deg": 97.5792,
      "raan_deg": 158.2334,
      "arg_perigee_deg": 116.6257,
      "mean_anomaly_deg": 243.5079,
      "mean_motion_rev_day": 15.05652395
    },
    {
      "epoch": "2026-04-25T15:54:13.078368Z",
      "apogee_km": 550.40518524449,
      "perigee_km": 548.5402727054498,
      "latitude_deg": -3.190631767259484e-05,
      "longitude_deg": 66.97875894009586,
      "height_km": 552.7416702627346,
      "semi_major_axis_km": 6927.60972897497,
      "eccentricity": 0.0001346,
      "inclination_deg": 97.5735,
      "raan_deg": 159.2112,
      "arg_perigee_deg": 102.6958,
      "mean_anomaly_deg": 257.4419,
      "mean_motion_rev_day": 15.05662527
    }
  ]
}